{
  "norad_id": 62916,
  "name": "STARLINK-11430 [DTC]",
  "history": [
    {
      "epoch": "2026-03-28T19:16:58.677888",
      "apogee_km": 357.4987572349237,
      "perigee_km": 355.2157636806287,
      "latitude_deg": -26.654058864387515,
      "longitude_deg": -171.26813567988575,
      "semi_major_axis_km": 6734.494260457776,
      "eccentricity": 0.0001695,
      "inclination_deg": 43.0008,
      "raan_deg": 232.8608,
      "arg_perigee_deg": 270.1056,
      "mean_anomaly_deg": 89.9618,
      "mean_motion_rev_day": 15.70888214
    }
  ]
}