{"fetched_at":"2026-03-29T16:36:15Z","count":15609,"tles":[{"name":"STARLINK-11430 [DTC]","line1":"1 62916U 25027K   26087.80345692  .00181274  00000+0  13828-2 0  9996","line2":"2 62916  43.0008 232.8608 0001695 270.1056  89.9618 15.70888214 66199","category":"Starlink"}]}